[{"OBJECT_NAME":"ONEWEB-0344","OBJECT_ID":"2021-083AA","EPOCH":"2026-03-09T16:59:38.736672","MEAN_MOTION":13.13470934,"ECCENTRICITY":0.00020532,"INCLINATION":87.9024,"RA_OF_ASC_NODE":340.0413,"ARG_OF_PERICENTER":72.2517,"MEAN_ANOMALY":287.8836,"EPHEMERIS_TYPE":0,"CLASSIFICATION_TYPE":"U","NORAD_CAT_ID":49210,"ELEMENT_SET_NO":999,"REV_AT_EPOCH":21783,"BSTAR":-0.0005678056,"MEAN_MOTION_DOT":-1.95e-6,"MEAN_MOTION_DDOT":0},{"OBJECT_NAME":"DELTA 1 DEB","OBJECT_ID":"1973-086EJ","EPOCH":"2026-03-09T17:00:37.856736","MEAN_MOTION":13.06963556,"ECCENTRICITY":0.00866905,"INCLINATION":101.6482,"RA_OF_ASC_NODE":113.4494,"ARG_OF_PERICENTER":353.8115,"MEAN_ANOMALY":125.442,"EPHEMERIS_TYPE":0,"CLASSIFICATION_TYPE":"U","NORAD_CAT_ID":7170,"ELEMENT_SET_NO":999,"REV_AT_EPOCH":45116,"BSTAR":0.0029776114,"MEAN_MOTION_DOT":9.57e-6,"MEAN_MOTION_DDOT":0}]
